{
  "type": "FeatureCollection",
  "features": [
    {
      "type": "Feature",
      "properties": {
        "norad_id": 38498,
        "name": "FENGYUN 1C DEB",
        "group": "fengyun-1c-debris",
        "lat": 40.953198236016554,
        "lon": 10.978322251209228,
        "alt_km": 846.551103931868,
        "timestamp": "2025-12-26T18:39:32.570071+00:00",
        "meta_object_name": "FENGYUN 1C DEB",
        "meta_object_id": "1999-025ESH",
        "meta_epoch": "2025-12-22T07:03:50.461056",
        "meta_mean_motion": 12.96639906,
        "meta_eccentricity": 0.05557542,
        "meta_inclination": 99.6983,
        "meta_ra_of_asc_node": 15.5173,
        "meta_arg_of_pericenter": 50.4291,
        "meta_mean_anomaly": 314.4564,
        "meta_ephemeris_type": 0,
        "meta_classification_type": "U",
        "meta_norad_cat_id": 38498,
        "meta_element_set_no": 999,
        "meta_rev_at_epoch": 53867,
        "meta_bstar": 0.0023471265,
        "meta_mean_motion_dot": 1.336e-05,
        "meta_mean_motion_ddot": 0,
        "tle_line1": "1 38498U 99025ESH 25356.29433404  .00001336  00000+0  23471-2 0  9998",
        "tle_line2": "2 38498  99.6983  15.5173 0555754  50.4291 314.4564 12.96639906538679"
      },
      "geometry": {
        "type": "Point",
        "coordinates": [
          10.978322251209228,
          40.953198236016554
        ]
      }
    },
    {
      "type": "Feature",
      "properties": {
        "norad_id": 38510,
        "name": "FENGYUN 1C DEB",
        "group": "fengyun-1c-debris",
        "lat": -41.372584178139796,
        "lon": 16.980913201566313,
        "alt_km": 915.8190022137105,
        "timestamp": "2025-12-26T18:39:32.570081+00:00",
        "meta_object_name": "FENGYUN 1C DEB",
        "meta_object_id": "1999-025ESV",
        "meta_epoch": "2025-12-23T07:36:20.803680",
        "meta_mean_motion": 14.13344604,
        "meta_eccentricity": 0.00959048,
        "meta_inclination": 98.6029,
        "meta_ra_of_asc_node": 5.9908,
        "meta_arg_of_pericenter": 120.5823,
        "meta_mean_anomaly": 240.4854,
        "meta_ephemeris_type": 0,
        "meta_classification_type": "U",
        "meta_norad_cat_id": 38510,
        "meta_element_set_no": 999,
        "meta_rev_at_epoch": 88819,
        "meta_bstar": 0.00051230803,
        "meta_mean_motion_dot": 9.63e-06,
        "meta_mean_motion_ddot": 0,
        "tle_line1": "1 38510U 99025ESV 25357.31690745  .00000963  00000+0  51231-3 0  9991",
        "tle_line2": "2 38510  98.6029   5.9908 0095904 120.5823 240.4854 14.13344604888193"
      },
      "geometry": {
        "type": "Point",
        "coordinates": [
          16.980913201566313,
          -41.372584178139796
        ]
      }
    },
    {
      "type": "Feature",
      "properties": {
        "norad_id": 38512,
        "name": "FENGYUN 1C DEB",
        "group": "fengyun-1c-debris",
        "lat": 2.813402258674519,
        "lon": 61.30234566295685,
        "alt_km": 1040.3863981099876,
        "timestamp": "2025-12-26T18:39:32.570091+00:00",
        "meta_object_name": "FENGYUN 1C DEB",
        "meta_object_id": "1999-025ESX",
        "meta_epoch": "2025-12-10T03:21:08.986176",
        "meta_mean_motion": 13.7397021,
        "meta_eccentricity": 0.02264501,
        "meta_inclination": 98.3804,
        "meta_ra_of_asc_node": 226.2794,
        "meta_arg_of_pericenter": 112.1956,
        "meta_mean_anomaly": 250.339,
        "meta_ephemeris_type": 0,
        "meta_classification_type": "U",
        "meta_norad_cat_id": 38512,
        "meta_element_set_no": 999,
        "meta_rev_at_epoch": 59534,
        "meta_bstar": 0.0014232555,
        "meta_mean_motion_dot": 1.573e-05,
        "meta_mean_motion_ddot": 0,
        "tle_line1": "1 38512U 99025ESX 25344.13968734  .00001573  00000+0  14233-2 0  9993",
        "tle_line2": "2 38512  98.3804 226.2794 0226450 112.1956 250.3390 13.73970210595340"
      },
      "geometry": {
        "type": "Point",
        "coordinates": [
          61.30234566295685,
          2.813402258674519
        ]
      }
    },
    {
      "type": "Feature",
      "properties": {
        "norad_id": 38514,
        "name": "FENGYUN 1C DEB",
        "group": "fengyun-1c-debris",
        "lat": -34.453038834685984,
        "lon": -156.53814354298612,
        "alt_km": 931.3366044323748,
        "timestamp": "2025-12-26T18:39:32.570100+00:00",
        "meta_object_name": "FENGYUN 1C DEB",
        "meta_object_id": "1999-025ESZ",
        "meta_epoch": "2025-12-25T00:56:07.133280",
        "meta_mean_motion": 14.16200659,
        "meta_eccentricity": 0.02694365,
        "meta_inclination": 98.0544,
        "meta_ra_of_asc_node": 27.4614,
        "meta_arg_of_pericenter": 337.8346,
        "meta_mean_anomaly": 21.1356,
        "meta_ephemeris_type": 0,
        "meta_classification_type": "U",
        "meta_norad_cat_id": 38514,
        "meta_element_set_no": 999,
        "meta_rev_at_epoch": 88170,
        "meta_bstar": 0.0072966296,
        "meta_mean_motion_dot": 0.00020596,
        "meta_mean_motion_ddot": 0,
        "tle_line1": "1 38514U 99025ESZ 25359.03897145  .00020596  00000+0  72966-2 0  9990",
        "tle_line2": "2 38514  98.0544  27.4614 0269436 337.8346  21.1356 14.16200659881707"
      },
      "geometry": {
        "type": "Point",
        "coordinates": [
          -156.53814354298612,
          -34.453038834685984
        ]
      }
    },
    {
      "type": "Feature",
      "properties": {
        "norad_id": 38516,
        "name": "FENGYUN 1C DEB",
        "group": "fengyun-1c-debris",
        "lat": 20.018730663671366,
        "lon": -18.74077168593948,
        "alt_km": 741.9229902185016,
        "timestamp": "2025-12-26T18:39:32.570110+00:00",
        "meta_object_name": "FENGYUN 1C DEB",
        "meta_object_id": "1999-025ETB",
        "meta_epoch": "2025-12-24T16:19:45.991488",
        "meta_mean_motion": 14.34056403,
        "meta_eccentricity": 0.0111753,
        "meta_inclination": 98.4438,
        "meta_ra_of_asc_node": 342.3136,
        "meta_arg_of_pericenter": 90.1675,
        "meta_mean_anomaly": 271.2316,
        "meta_ephemeris_type": 0,
        "meta_classification_type": "U",
        "meta_norad_cat_id": 38516,
        "meta_element_set_no": 999,
        "meta_rev_at_epoch": 85044,
        "meta_bstar": 0.00010995262,
        "meta_mean_motion_dot": 2.86e-06,
        "meta_mean_motion_ddot": 0,
        "tle_line1": "1 38516U 99025ETB 25358.68039342  .00000286  00000+0  10995-3 0  9998",
        "tle_line2": "2 38516  98.4438 342.3136 0111753  90.1675 271.2316 14.34056403850442"
      },
      "geometry": {
        "type": "Point",
        "coordinates": [
          -18.74077168593948,
          20.018730663671366
        ]
      }
    },
    {
      "type": "Feature",
      "properties": {
        "norad_id": 38717,
        "name": "FENGYUN 1C DEB",
        "group": "fengyun-1c-debris",
        "lat": -68.08380479988682,
        "lon": 172.8350990455733,
        "alt_km": 814.2903031171545,
        "timestamp": "2025-12-26T18:39:32.570120+00:00",
        "meta_object_name": "FENGYUN 1C DEB",
        "meta_object_id": "1999-025ETJ",
        "meta_epoch": "2025-12-24T22:03:53.256096",
        "meta_mean_motion": 14.20015413,
        "meta_eccentricity": 0.0056679,
        "meta_inclination": 99.159,
        "meta_ra_of_asc_node": 14.5537,
        "meta_arg_of_pericenter": 319.0922,
        "meta_mean_anomaly": 158.0056,
        "meta_ephemeris_type": 0,
        "meta_classification_type": "U",
        "meta_norad_cat_id": 38717,
        "meta_element_set_no": 999,
        "meta_rev_at_epoch": 58599,
        "meta_bstar": 0.0017391,
        "meta_mean_motion_dot": 3.714e-05,
        "meta_mean_motion_ddot": 0,
        "tle_line1": "1 38717U 99025ETJ 25358.91936639  .00003714  00000+0  17391-2 0  9997",
        "tle_line2": "2 38717  99.1590  14.5537 0056679 319.0922 158.0056 14.20015413585997"
      },
      "geometry": {
        "type": "Point",
        "coordinates": [
          172.8350990455733,
          -68.08380479988682
        ]
      }
    },
    {
      "type": "Feature",
      "properties": {
        "norad_id": 38722,
        "name": "FENGYUN 1C DEB",
        "group": "fengyun-1c-debris",
        "lat": 68.72113916569447,
        "lon": 75.81266557616732,
        "alt_km": 592.4094176628005,
        "timestamp": "2025-12-26T18:39:32.570132+00:00",
        "meta_object_name": "FENGYUN 1C DEB",
        "meta_object_id": "1999-025ETP",
        "meta_epoch": "2025-12-23T03:05:34.681632",
        "meta_mean_motion": 14.58641148,
        "meta_eccentricity": 0.0145982,
        "meta_inclination": 99.353,
        "meta_ra_of_asc_node": 96.7446,
        "meta_arg_of_pericenter": 63.5175,
        "meta_mean_anomaly": 298.091,
        "meta_ephemeris_type": 0,
        "meta_classification_type": "U",
        "meta_norad_cat_id": 38722,
        "meta_element_set_no": 999,
        "meta_rev_at_epoch": 70615,
        "meta_bstar": 0.0021733607,
        "meta_mean_motion_dot": 0.00011693,
        "meta_mean_motion_ddot": 0,
        "tle_line1": "1 38722U 99025ETP 25357.12887363  .00011693  00000+0  21734-2 0  9995",
        "tle_line2": "2 38722  99.3530  96.7446 0145982  63.5175 298.0910 14.58641148706155"
      },
      "geometry": {
        "type": "Point",
        "coordinates": [
          75.81266557616732,
          68.72113916569447
        ]
      }
    }
  ]
}